satname,norad_id,inclination_deg,eccentricity,mean_motion_rev_per_day,perigee_km,apogee_km,l1,l2
STARLINK-1417,45693,53.0493,0.000631,15.15731363,514.4071559515978,523.1110388265042,1 45693U 20035AN  26138.29621413  .00017364  00000+0  91369-3 0  9996,2 45693  53.0493  97.9899 0006310  71.3465 288.8213 15.15731363329449
STARLINK-1420,45695,53.0464,0.000653,15.65853688,366.37763486181666,375.1917265768361,1 45695U 20035AQ  26138.16580199  .00033274  00000+0  32522-3 0  9993,2 45695  53.0464  43.7252 0006530  73.1651 287.0080 15.65853688330201
STARLINK-1422,45696,53.1565,0.0003943,15.33248598,463.42889749797723,468.82628455445956,1 45696U 20035AR  26138.91668981  .00019117  00000+0  59662-3 0  9997,2 45696  53.1565  82.8980 0003943  86.6469 122.0938 15.33248598  5862
STARLINK-1351,45697,53.0436,0.0005816,15.64392108,371.05999678222724,378.91523133329883,1 45697U 20035AS  26138.74102682  .00080034  00000+0  81650-3 0  9998,2 45697  53.0436  41.0991 0005816  82.9803 277.1872 15.64392108330298
STARLINK-1400,45700,53.0442,0.0004718,15.61896131,378.99070338965066,385.3697387194379,1 45700U 20035AV  26138.92478155  .00071726  00000+0  80842-3 0  9994,2 45700  53.0442  42.5099 0004718  45.4824 314.6574 15.61896131330289
STARLINK-1403,45701,53.1569,0.0003002,15.32203849,467.18287705998773,471.29404128567603,1 45701U 20035AW  26138.55207586  .00028537  00000+0  91334-3 0  9992,2 45701  53.1569  71.9952 0003002  95.4114 264.7230 15.32203849329847
STARLINK-1407,45703,53.0286,0.0002882,15.70466367,355.6219575344303,359.50441512182897,1 45703U 20035AY  26138.26075611  .00041840  00000+0  33763-3 0  9998,2 45703  53.0286 333.6681 0002882   3.2822 356.8213 15.70466367331192
STARLINK-1411,45706,53.0342,0.0001802,15.80987585,326.43822692536924,328.85499133809935,1 45706U 20035BB  26138.91668981  .00102543  00000+0  51411-3 0  9999,2 45706  53.0342 353.7421 0001802 205.5428  40.4435 15.80987585  5936
STARLINK-1423,45710,53.044,0.0007497,15.66791558,363.03352782752336,373.1488223532542,1 45710U 20035BF  26138.46403796  .00035795  00000+0  33634-3 0  9996,2 45710  53.0440  41.8448 0007497  45.9143 314.2489 15.66791558330243
STARLINK-1433,45711,53.0448,0.0007479,15.66420067,364.11145144157854,374.20405493339604,1 45711U 20035BG  26138.89060169  .00034289  00000+0  32732-3 0  9992,2 45711  53.0448  38.2836 0007479  52.4441 307.7253 15.66420067330337
STARLINK-1434,45712,53.0495,0.0003825,15.32620621,465.3783994754549,470.6156920204512,1 45712U 20035BH  26138.46827114  .00020575  00000+0  65383-3 0  9998,2 45712  53.0495  55.2516 0003825  46.2222 313.9095 15.32620621330078
STARLINK-1465,45731,53.047,0.0001605,15.60758029,384.3806710489125,386.55178768554015,1 45731U 20038B   26138.48232580  .00056672  00000+0  67015-3 0  9992,2 45731  53.0470 245.4341 0001605 293.7940  66.2904 15.60758029327248
STARLINK-1471,45735,53.0432,0.0002958,15.52432012,407.61992093099707,411.635562552211,1 45735U 20038F   26138.37704987  .00012587  00000+0  20965-3 0  9999,2 45735  53.0432 167.1972 0002958  62.9396 297.1915 15.52432012328344
STARLINK-1480,45741,53.0481,0.0005384,15.6240617,377.06993249722836,384.34785775710134,1 45741U 20038M   26138.65233479  .00063012  00000+0  69766-3 0  9991,2 45741  53.0481 238.2233 0005384 325.6425  34.4240 15.62406170327375
STARLINK-1500,45744,53.0347,0.0002259,15.38215627,449.8430529005291,452.9286313205939,1 45744U 20038Q   26138.53073574  .00013594  00000+0  36546-3 0  9999,2 45744  53.0347 224.2115 0002259  95.7992 264.3268 15.38215627327557
STARLINK-1504,45746,53.0187,0.0003518,15.57641515,392.10231628181737,396.86753306801893,1 45746U 20038S   26138.78205667  .00019395  00000+0  26358-3 0  9993,2 45746  53.0187 162.8104 0003518  42.0403 318.0878 15.57641515328428
STARLINK-1506,45747,53.0749,0.0003581,15.27942342,479.50772587382744,484.4209304450551,1 45747U 20038T   26138.55497325  .00005317  00000+0  20499-3 0  9992,2 45747  53.0749 238.7207 0003581 112.0543 248.0836 15.27942342327360
STARLINK-1464,45751,53.0459,0.0002886,15.52700287,406.8871375958479,410.80458410312895,1 45751U 20038X   26138.54009677  .00040612  00000+0  65104-3 0  9994,2 45751  53.0459 230.3017 0002886 337.5668  22.5214 15.52700287327474
STARLINK-1477,45754,53.0448,0.0001032,15.17913104,511.43769510623133,512.859850089696,1 45754U 20038AA  26138.37472003  .00011905  00000+0  59426-3 0  9998,2 45754  53.0448 255.3404 0001032 191.8942 168.2028 15.17913104327106
STARLINK-1478,45755,53.0451,0.0003397,15.65999702,368.0726945046208,372.657626872593,1 45755U 20038AB  26138.92700818  .00033617  00000+0  32681-3 0  9996,2 45755  53.0451 215.1770 0003397   2.1213 357.9816 15.65999702327701
STARLINK-1493,45759,53.0471,0.0005984,15.61791798,378.4357384935729,386.526846466013,1 45759U 20038AF  26138.71058390  .00057442  00000+0  65219-3 0  9993,2 45759  53.0471 225.3767 0005984 316.8899  43.1645 15.61791798327542
STARLINK-1494,45760,53.0387,0.000695,15.94452293,285.2067058681705,294.4751952194256,1 45760U 20038AG  26138.91668981  .00269205  39216-4  70297-3 0  9990,2 45760  53.0387 157.6530 0006950  12.7785 110.5933 15.94452293  5963
STARLINK-1502,45764,53.0455,0.000616,15.58150776,388.8381235708048,397.18017562710975,1 45764U 20038AL  26138.65172757  .00065587  00000+0  85360-3 0  9994,2 45764  53.0455 228.9392 0006160 288.9584  71.0759 15.58150776327503
STARLINK-1470,45772,53.0433,0.0003206,15.33684886,462.6356804765355,467.0233906191288,1 45772U 20038AU  26138.45807681  .00023144  00000+0  70971-3 0  9997,2 45772  53.0433 208.9879 0003206 328.2653  31.8154 15.33684886327767
STARLINK-1482,45773,53.1578,0.0003325,15.3602651,455.60020275822353,460.14614952535794,1 45773U 20038AV  26138.50080402  .00026036  00000+0  73973-3 0  9996,2 45773  53.1578 225.3179 0003325 318.0227  42.0521 15.36026510327557
STARLINK-1496,45780,53.0464,0.0007175,15.59572441,384.03824785726556,393.74893675722615,1 45780U 20038BC  26138.86199040  .00038550  00000+0  47956-3 0  9998,2 45780  53.0464 198.9509 0007175  13.5449 346.5755 15.59572441327926
STARLINK-1513,45786,53.1589,0.0001075,15.31705685,469.9867961336631,471.45930104410945,1 45786U 20038BJ  26138.54441146  .00001008  00000+0  44225-4 0  9991,2 45786  53.1589 226.3257 0001075  84.3570 275.7554 15.31705685327547
STARLINK-1522,46027,53.0604,0.0002695,15.12204095,527.6181610311596,531.3413664668196,1 46027U 20055A   26138.80746654  .00013102  00000+0  76573-3 0  9998,2 46027  53.0604 169.6631 0002695 354.7450   5.3513 15.12204095319482
STARLINK-1523,46028,53.1604,0.0001135,15.30193716,474.45597478536183,476.0116899643117,1 46028U 20055B   26138.34375564  .00002367  00000+0  92035-4 0  9999,2 46028  53.1604 163.1675 0001135  86.6499 273.4631 15.30193716319568
STARLINK-1526,46029,53.1607,0.0001432,15.30159593,474.3543027993537,476.3171373863879,1 46029U 20055C   26138.79464741  .00008935  00000+0  31381-3 0  9998,2 46029  53.1607 161.0837 0001432  99.8947 260.2216 15.30159593319628
STARLINK-1555,46032,53.1604,0.000131,15.30191099,474.34385372706856,476.13943893240776,1 46032U 20055F   26138.77884727 -.00000428  00000+0 -23268-5 0  9998,2 46032  53.1604 161.1403 0001310  87.9905 272.1246 15.30191099319628
STARLINK-1556,46033,53.1576,0.0001253,15.30180259,474.41528072073197,476.1327455206201,1 46033U 20055G   26138.37010145 -.00003239  00000+0 -97341-4 0  9995,2 46033  53.1576 163.0543 0001253  77.3467 282.7674 15.30180259319533
STARLINK-1557,46034,53.1597,0.0001224,15.30200635,474.37432336321217,476.0520234856667,1 46034U 20055H   26138.24261633 -.00000371  00000+0 -41221-6 0  9994,2 46034  53.1597 163.6428 0001224  82.2500 277.8640 15.30200635319513
STARLINK-1558,46035,53.16,0.0001272,15.30193765,474.3619373174033,476.10543481993955,1 46035U 20055J   26138.77251152 -.00000860  00000+0 -16932-4 0  9990,2 46035  53.1600 161.1809 0001272  81.5614 278.5532 15.30193765319621
STARLINK-1560,46036,53.1592,0.0001047,15.30200309,474.4966009361069,475.9316926662477,1 46036U 20055K   26138.75881481  .00000433  00000+0  26728-4 0  9991,2 46036  53.1592 161.2535 0001047  93.5766 266.5354 15.30200309319622
STARLINK-1569,46039,53.1605,0.0001295,15.30197848,474.333984985863,476.1090048360438,1 46039U 20055N   26138.44909617  .00000493  00000+0  28782-4 0  9990,2 46039  53.1605 162.6746 0001295  90.1248 269.9901 15.30197848319563
STARLINK-1582,46043,53.1577,0.0001225,15.31710425,469.8699353942984,471.5479026444582,1 46043U 20055S   26138.35592551  .00001713  00000+0  66939-4 0  9992,2 46043  53.1577 162.7336 0001225  86.5617 273.5525 15.31710425319559
STARLINK-1591,46045,53.1598,0.0001232,15.30202242,474.36404306939403,476.0527073698486,1 46045U 20055U   26138.35112438  .00000498  00000+0  28924-4 0  9997,2 46045  53.1598 163.1351 0001232  85.0289 275.0853 15.30202242319534
STARLINK-1524,46047,53.1604,0.0001108,15.31708211,469.9566659121765,471.47437163033646,1 46047U 20055W   26138.45576121 -.00000691  00000+0 -10490-4 0  9999,2 46047  53.1604 149.5655 0001108  83.2973 276.8155 15.31708211319757
STARLINK-1527,46048,53.1603,0.0001147,15.31716391,469.90557435620667,471.4766955303621,1 46048U 20055X   26138.45108322  .00001132  00000+0  48225-4 0  9990,2 46048  53.1603 149.5691 0001147  86.6278 273.4854 15.31716391319729
STARLINK-1540,46051,53.1606,0.0001288,15.31678222,469.92277136095254,471.68705879827667,1 46051U 20055AA  26138.91668981  .00047987  00000+0  15492-2 0  9993,2 46051  53.1606 147.6076 0001288  90.2452  35.6339 15.31678222  5866
STARLINK-1541,46052,53.1592,0.0002123,15.77644832,335.6898729152754,338.54116913570306,1 46052U 20055AB  26138.89969628  .00095398  00000+0  55722-3 0  9993,2 46052  53.1592 138.5745 0002123  79.0469 281.0791 15.77644832319929
STARLINK-1543,46053,53.1601,0.0001563,15.31707064,469.6484617070637,471.7894140732478,1 46053U 20055AC  26138.34389281  .00000228  00000+0  19130-4 0  9997,2 46053  53.1601 150.0831 0001563  81.0282 279.0896 15.31707064319749
